[{"OBJECT_NAME":"BEIJING 1","OBJECT_ID":"2005-043A","EPOCH":"2026-03-15T06:41:34.487232","MEAN_MOTION":14.63466626,"ECCENTRICITY":0.00138772,"INCLINATION":98.2733,"RA_OF_ASC_NODE":207.052,"ARG_OF_PERICENTER":211.4823,"MEAN_ANOMALY":148.555,"EPHEMERIS_TYPE":0,"CLASSIFICATION_TYPE":"U","NORAD_CAT_ID":28890,"ELEMENT_SET_NO":999,"REV_AT_EPOCH":8691,"BSTAR":9.8073986e-5,"MEAN_MOTION_DOT":4.59e-6,"MEAN_MOTION_DDOT":0},{"OBJECT_NAME":"HUANJING 1A (HJ-1A)","OBJECT_ID":"2008-041A","EPOCH":"2026-03-15T07:12:11.098944","MEAN_MOTION":14.83740671,"ECCENTRICITY":0.00207088,"INCLINATION":97.6638,"RA_OF_ASC_NODE":63.8126,"ARG_OF_PERICENTER":86.508,"MEAN_ANOMALY":273.8503,"EPHEMERIS_TYPE":0,"CLASSIFICATION_TYPE":"U","NORAD_CAT_ID":33320,"ELEMENT_SET_NO":999,"REV_AT_EPOCH":94448,"BSTAR":0.00018875792,"MEAN_MOTION_DOT":1.516e-5,"MEAN_MOTION_DDOT":0},{"OBJECT_NAME":"HUANJING 1B (HJ-1B)","OBJECT_ID":"2008-041B","EPOCH":"2026-03-15T07:05:56.044320","MEAN_MOTION":14.83120828,"ECCENTRICITY":0.00375271,"INCLINATION":97.6487,"RA_OF_ASC_NODE":67.256,"ARG_OF_PERICENTER":129.751,"MEAN_ANOMALY":230.702,"EPHEMERIS_TYPE":0,"CLASSIFICATION_TYPE":"U","NORAD_CAT_ID":33321,"ELEMENT_SET_NO":999,"REV_AT_EPOCH":94449,"BSTAR":0.00019298705,"MEAN_MOTION_DOT":1.54e-5,"MEAN_MOTION_DDOT":0},{"OBJECT_NAME":"YAOGAN-4","OBJECT_ID":"2008-061A","EPOCH":"2026-03-15T06:03:55.635264","MEAN_MOTION":14.82996576,"ECCENTRICITY":0.00149528,"INCLINATION":97.925,"RA_OF_ASC_NODE":8.5017,"ARG_OF_PERICENTER":22.2726,"MEAN_ANOMALY":337.9134,"EPHEMERIS_TYPE":0,"CLASSIFICATION_TYPE":"U","NORAD_CAT_ID":33446,"ELEMENT_SET_NO":999,"REV_AT_EPOCH":93174,"BSTAR":0.00018025606,"MEAN_MOTION_DOT":1.413e-5,"MEAN_MOTION_DDOT":0},{"OBJECT_NAME":"DEIMOS-1","OBJECT_ID":"2009-041A","EPOCH":"2026-03-15T07:27:07.268256","MEAN_MOTION":14.75125921,"ECCENTRICITY":0.00024873,"INCLINATION":97.7265,"RA_OF_ASC_NODE":235.6703,"ARG_OF_PERICENTER":109.4956,"MEAN_ANOMALY":250.6522,"EPHEMERIS_TYPE":0,"CLASSIFICATION_TYPE":"U","NORAD_CAT_ID":35681,"ELEMENT_SET_NO":999,"REV_AT_EPOCH":89304,"BSTAR":0.00012805063,"MEAN_MOTION_DOT":8.16e-6,"MEAN_MOTION_DDOT":0},{"OBJECT_NAME":"UK-DMC 2","OBJECT_ID":"2009-041C","EPOCH":"2026-03-15T06:19:05.987136","MEAN_MOTION":14.7586481,"ECCENTRICITY":0.00011875,"INCLINATION":97.8657,"RA_OF_ASC_NODE":211.6176,"ARG_OF_PERICENTER":99.1956,"MEAN_ANOMALY":260.9388,"EPHEMERIS_TYPE":0,"CLASSIFICATION_TYPE":"U","NORAD_CAT_ID":35683,"ELEMENT_SET_NO":999,"REV_AT_EPOCH":89271,"BSTAR":0.00013074851,"MEAN_MOTION_DOT":8.48e-6,"MEAN_MOTION_DDOT":0},{"OBJECT_NAME":"DMC3-FM1","OBJECT_ID":"2015-032A","EPOCH":"2026-03-15T06:01:55.497792","MEAN_MOTION":14.85622854,"ECCENTRICITY":0.00060004,"INCLINATION":97.6609,"RA_OF_ASC_NODE":303.0391,"ARG_OF_PERICENTER":17.6765,"MEAN_ANOMALY":342.4659,"EPHEMERIS_TYPE":0,"CLASSIFICATION_TYPE":"U","NORAD_CAT_ID":40715,"ELEMENT_SET_NO":999,"REV_AT_EPOCH":57596,"BSTAR":0.00011530014,"MEAN_MOTION_DOT":9.47e-6,"MEAN_MOTION_DDOT":0},{"OBJECT_NAME":"DMC3-FM2","OBJECT_ID":"2015-032B","EPOCH":"2026-03-15T06:34:03.697824","MEAN_MOTION":14.85628591,"ECCENTRICITY":0.00066734,"INCLINATION":97.6665,"RA_OF_ASC_NODE":304.57,"ARG_OF_PERICENTER":21.7237,"MEAN_ANOMALY":338.426,"EPHEMERIS_TYPE":0,"CLASSIFICATION_TYPE":"U","NORAD_CAT_ID":40716,"ELEMENT_SET_NO":999,"REV_AT_EPOCH":57596,"BSTAR":0.00013677872,"MEAN_MOTION_DOT":1.133e-5,"MEAN_MOTION_DDOT":0},{"OBJECT_NAME":"DMC3-FM3","OBJECT_ID":"2015-032C","EPOCH":"2026-03-15T07:07:17.884992","MEAN_MOTION":14.85624189,"ECCENTRICITY":0.00059713,"INCLINATION":97.6719,"RA_OF_ASC_NODE":306.2842,"ARG_OF_PERICENTER":22.5372,"MEAN_ANOMALY":337.6105,"EPHEMERIS_TYPE":0,"CLASSIFICATION_TYPE":"U","NORAD_CAT_ID":40717,"ELEMENT_SET_NO":999,"REV_AT_EPOCH":57597,"BSTAR":2.8016487e-5,"MEAN_MOTION_DOT":1.91e-6,"MEAN_MOTION_DDOT":0}]
