BEIJING 1               
1 28890U 05043A   26074.27887138  .00000459  00000+0  98074-4 0  9991
2 28890  98.2733 207.0520 0013877 211.4823 148.5550 14.63466626 86910
HUANJING 1A (HJ-1A)     
1 33320U 08041A   26074.30012846  .00001516  00000+0  18876-3 0  9992
2 33320  97.6638  63.8126 0020708  86.5080 273.8503 14.83740671944480
HUANJING 1B (HJ-1B)     
1 33321U 08041B   26074.29578755  .00001540  00000+0  19299-3 0  9994
2 33321  97.6487  67.2560 0037527 129.7510 230.7020 14.83120828944491
YAOGAN-4                
1 33446U 08061A   26074.25272726  .00001413  00000+0  18026-3 0  9995
2 33446  97.9250   8.5017 0014952  22.2726 337.9134 14.82996576931748
DEIMOS-1                
1 35681U 09041A   26074.31050079  .00000816  00000+0  12805-3 0  9994
2 35681  97.7265 235.6703 0002487 109.4956 250.6522 14.75125921893045
UK-DMC 2                
1 35683U 09041C   26074.26326374  .00000848  00000+0  13075-3 0  9999
2 35683  97.8657 211.6176 0001187  99.1956 260.9388 14.75864810892716
DMC3-FM1                
1 40715U 15032A   26074.25133678  .00000947  00000+0  11530-3 0  9994
2 40715  97.6609 303.0391 0006000  17.6765 342.4659 14.85622854575963
DMC3-FM2                
1 40716U 15032B   26074.27365391  .00001133  00000+0  13678-3 0  9999
2 40716  97.6665 304.5700 0006673  21.7237 338.4260 14.85628591575969
DMC3-FM3                
1 40717U 15032C   26074.29673478  .00000191  00000+0  28016-4 0  9996
2 40717  97.6719 306.2842 0005971  22.5372 337.6105 14.85624189575974
